{"type":"FeatureCollection","features":[{"type":"Feature","properties":{"dta":"21304"},"geometry":{"type":"Polygon","coordinates":[[[-85.02369,10.80027],[-85.00656,10.79634],[-84.99841,10.78483],[-84.97283,10.76668],[-84.96797,10.7697],[-84.95084,10.77256],[-84.9633,10.75853],[-84.96139,10.75692],[-84.96042,10.75135],[-84.95479,10.74852],[-84.94952,10.73514],[-84.95188,10.73257],[-84.95726,10.73372],[-84.95607,10.7307],[-84.95738,10.7277],[-84.95537,10.72339],[-84.9573,10.72086],[-84.96439,10.71892],[-84.97106,10.71989],[-84.97594,10.71742],[-84.97885,10.72102],[-84.98077,10.72131],[-84.98957,10.71011],[-84.99805,10.70591],[-85.00037,10.69481],[-85.0049,10.68273],[-85.01238,10.67112],[-85.01423,10.67079],[-85.01956,10.67399],[-85.01973,10.67976],[-85.02184,10.68212],[-85.02192,10.68642],[-85.02709,10.69294],[-85.0375,10.69572],[-85.04084,10.69811],[-85.05184,10.69618],[-85.05577,10.69707],[-85.06078,10.70387],[-85.06166,10.70845],[-85.06754,10.7082],[-85.07202,10.71288],[-85.07808,10.71332],[-85.08448,10.71165],[-85.09747,10.71723],[-85.10205,10.71278],[-85.10709,10.71307],[-85.11484,10.71018],[-85.11671,10.71101],[-85.12473,10.71033],[-85.12543,10.71235],[-85.12433,10.71455],[-85.12949,10.71809],[-85.12804,10.7276],[-85.12954,10.73031],[-85.12889,10.73304],[-85.13743,10.73939],[-85.13962,10.74493],[-85.14363,10.74627],[-85.1447,10.75233],[-85.13542,10.75884],[-85.13259,10.76516],[-85.12338,10.76992],[-85.12124,10.77403],[-85.12075,10.78072],[-85.11437,10.78984],[-85.10941,10.79179],[-85.09768,10.78924],[-85.09276,10.79061],[-85.08995,10.79323],[-85.08727,10.79882],[-85.08149,10.79889],[-85.07222,10.80511],[-85.06968,10.80958],[-85.04782,10.80942],[-85.04287,10.81245],[-85.0376,10.82094],[-85.03185,10.82304],[-85.03143,10.8191],[-85.0283,10.81245],[-85.03119,10.80048],[-85.02369,10.80027]]]}},{"type":"Feature","properties":{"dta":"21308"},"geometry":{"type":"Polygon","coordinates":[[[-85.01123,10.79775],[-85.02369,10.80027],[-85.03119,10.80048],[-85.0283,10.81245],[-85.03143,10.8191],[-85.03185,10.82304],[-85.03509,10.82245],[-85.0376,10.82094],[-85.04287,10.81245],[-85.04782,10.80942],[-85.06968,10.80958],[-85.07222,10.80511],[-85.08149,10.79889],[-85.08727,10.79882],[-85.08995,10.79323],[-85.09276,10.79061],[-85.09768,10.78924],[-85.10891,10.79176],[-85.11347,10.79054],[-85.12075,10.78072],[-85.12124,10.77403],[-85.12338,10.76992],[-85.13259,10.76516],[-85.13125,10.78074],[-85.13196,10.79223],[-85.12857,10.80616],[-85.13519,10.81851],[-85.13276,10.82194],[-85.12961,10.82372],[-85.1266,10.83045],[-85.11887,10.82829],[-85.11685,10.83032],[-85.1164,10.83912],[-85.11372,10.84245],[-85.11322,10.84669],[-85.09512,10.86876],[-85.0949,10.87463],[-85.09198,10.87742],[-85.09005,10.88279],[-85.09203,10.88513],[-85.09184,10.88682],[-85.08706,10.88844],[-85.08312,10.88665],[-85.07645,10.89053],[-85.07145,10.87708],[-85.06089,10.88156],[-85.05542,10.88083],[-85.04787,10.87502],[-85.04447,10.87446],[-85.03738,10.87474],[-85.03789,10.87875],[-85.03685,10.88153],[-85.03088,10.87823],[-85.0274,10.87589],[-85.03074,10.8662],[-85.0302,10.86088],[-85.02774,10.86114],[-85.02722,10.85988],[-85.0252,10.86201],[-85.026,10.8675],[-85.02479,10.87011],[-85.01929,10.86918],[-85.02002,10.87255],[-85.01717,10.87531],[-85.01211,10.86191],[-85.00884,10.85681],[-85.01496,10.8501],[-85.01905,10.8414],[-85.02309,10.83773],[-85.00409,10.83727],[-84.99981,10.83666],[-84.99654,10.83458],[-84.98774,10.83613],[-84.98331,10.83517],[-84.98642,10.82971],[-84.9913,10.82555],[-84.99209,10.82148],[-84.99114,10.82048],[-84.99342,10.81844],[-84.9945,10.81437],[-84.9971,10.81236],[-84.9968,10.80887],[-85.01123,10.79775]]]}},{"type":"Feature","properties":{"dta":"21301"},"geometry":{"type":"Polygon","coordinates":[[[-84.90195,10.82818],[-84.90319,10.82334],[-84.90174,10.81996],[-84.90315,10.81474],[-84.90145,10.81211],[-84.90338,10.80943],[-84.90447,10.80401],[-84.91656,10.80315],[-84.91808,10.79879],[-84.91623,10.79678],[-84.91537,10.79284],[-84.91922,10.79235],[-84.92184,10.79039],[-84.922,10.7845],[-84.92692,10.77692],[-84.929,10.77561],[-84.93345,10.77612],[-84.93691,10.77482],[-84.94694,10.7744],[-84.95084,10.77256],[-84.96797,10.7697],[-84.97283,10.76668],[-84.99841,10.78483],[-85.00656,10.79634],[-85.01123,10.79775],[-84.9968,10.80887],[-84.9971,10.81236],[-84.9945,10.81437],[-84.99342,10.81844],[-84.99114,10.82048],[-84.99209,10.82148],[-84.9913,10.82555],[-84.98642,10.82971],[-84.98331,10.83517],[-84.98774,10.83613],[-84.99654,10.83458],[-84.99981,10.83666],[-85.00409,10.83727],[-85.02309,10.83773],[-85.01905,10.8414],[-85.01496,10.8501],[-85.00884,10.85681],[-85.01211,10.86191],[-85.01717,10.87531],[-85.02002,10.87255],[-85.01929,10.86918],[-85.02479,10.87011],[-85.026,10.8675],[-85.0252,10.86201],[-85.02684,10.85986],[-85.02774,10.86114],[-85.0302,10.86088],[-85.03074,10.8662],[-85.0274,10.87589],[-85.03685,10.88153],[-85.03789,10.87875],[-85.03738,10.87474],[-85.04716,10.87477],[-85.05542,10.88083],[-85.06089,10.88156],[-85.07145,10.87708],[-85.07645,10.89053],[-85.08312,10.88665],[-85.08706,10.88844],[-85.09184,10.88682],[-85.09127,10.89184],[-85.08738,10.89991],[-85.0881,10.90326],[-85.08668,10.90551],[-85.08718,10.90823],[-85.07778,10.90841],[-85.07028,10.9064],[-85.06399,10.90753],[-85.05633,10.90531],[-85.05319,10.90688],[-85.04314,10.89901],[-85.04534,10.90498],[-85.04272,10.90909],[-85.04457,10.91225],[-85.04434,10.91518],[-85.0407,10.91779],[-85.04105,10.91998],[-85.03905,10.92114],[-85.04,10.92415],[-85.03872,10.92669],[-85.03052,10.9265],[-85.02713,10.93077],[-85.02741,10.93413],[-85.02166,10.93397],[-85.02042,10.93957],[-85.0216,10.94502],[-85.01951,10.94709],[-85.01531,10.95662],[-85.0119,10.95664],[-85.00874,10.95927],[-85.00545,10.96013],[-85.00107,10.95942],[-84.99903,10.96393],[-84.99768,10.96431],[-84.99355,10.95115],[-84.99395,10.94785],[-84.9967,10.94371],[-84.9957,10.93661],[-84.99666,10.93367],[-84.99058,10.92932],[-84.98909,10.92563],[-84.995,10.91876],[-84.99655,10.91417],[-84.98861,10.89457],[-84.99014,10.89426],[-84.99143,10.88941],[-84.98582,10.87174],[-84.98643,10.86965],[-84.98495,10.86558],[-84.98643,10.86168],[-84.98537,10.85937],[-84.98045,10.85494],[-84.93501,10.85503],[-84.90195,10.82818]]]}},{"type":"Feature","properties":{"dta":"21302"},"geometry":{"type":"Polygon","coordinates":[[[-85.26953,10.97884],[-85.25831,10.97363],[-85.25167,10.97268],[-85.25048,10.97057],[-85.25211,10.96751],[-85.24948,10.96842],[-85.24692,10.96681],[-85.24641,10.96419],[-85.24779,10.96198],[-85.24404,10.96031],[-85.24498,10.95751],[-85.24357,10.95458],[-85.2477,10.95148],[-85.2446,10.94943],[-85.24711,10.94564],[-85.24378,10.94207],[-85.2407,10.94312],[-85.23742,10.94193],[-85.23302,10.93814],[-85.23145,10.93869],[-85.23322,10.9404],[-85.2327,10.94133],[-85.22851,10.9372],[-85.22849,10.93463],[-85.2216,10.93452],[-85.21936,10.93227],[-85.21906,10.93],[-85.22266,10.92909],[-85.21922,10.92658],[-85.21537,10.92771],[-85.21456,10.92279],[-85.21337,10.92322],[-85.21361,10.92706],[-85.21258,10.92681],[-85.20808,10.92096],[-85.20422,10.9183],[-85.20427,10.91588],[-85.20188,10.91485],[-85.20048,10.91236],[-85.19457,10.9101],[-85.18905,10.91187],[-85.18527,10.9107],[-85.18437,10.91267],[-85.18272,10.91292],[-85.18195,10.90964],[-85.18316,10.90712],[-85.18028,10.90297],[-85.17836,10.9043],[-85.17707,10.90155],[-85.17803,10.89787],[-85.17447,10.89379],[-85.17386,10.88975],[-85.17128,10.88897],[-85.17059,10.88648],[-85.16562,10.88523],[-85.16317,10.87957],[-85.1581,10.87347],[-85.15666,10.86492],[-85.15341,10.8603],[-85.15111,10.85941],[-85.15116,10.85627],[-85.14693,10.85634],[-85.14332,10.8541],[-85.12962,10.84139],[-85.12546,10.83447],[-85.12048,10.83189],[-85.12233,10.82958],[-85.12705,10.83011],[-85.12961,10.82372],[-85.13276,10.82194],[-85.13519,10.81851],[-85.12857,10.80616],[-85.13196,10.79223],[-85.13125,10.78074],[-85.13244,10.76582],[-85.13542,10.75884],[-85.1447,10.75233],[-85.14461,10.74762],[-85.15568,10.74639],[-85.16936,10.74779],[-85.17858,10.74702],[-85.18102,10.74578],[-85.18959,10.74745],[-85.19812,10.7507],[-85.20322,10.75462],[-85.2163,10.75954],[-85.224,10.76097],[-85.23543,10.76667],[-85.24244,10.76387],[-85.24491,10.76452],[-85.24945,10.76308],[-85.25456,10.75812],[-85.26223,10.75439],[-85.26387,10.75582],[-85.26942,10.75585],[-85.27123,10.75235],[-85.27538,10.75256],[-85.28209,10.75969],[-85.28564,10.76159],[-85.28657,10.76728],[-85.28908,10.76883],[-85.29088,10.77215],[-85.2907,10.77485],[-85.29592,10.77713],[-85.30184,10.78846],[-85.30246,10.79323],[-85.30557,10.80014],[-85.31837,10.80842],[-85.31925,10.81118],[-85.32481,10.81093],[-85.32864,10.81618],[-85.33714,10.81803],[-85.34103,10.82228],[-85.34897,10.82749],[-85.36027,10.82724],[-85.3574,10.83307],[-85.35981,10.84729],[-85.3561,10.85252],[-85.3579,10.85602],[-85.3569,10.85804],[-85.35818,10.86219],[-85.35352,10.86771],[-85.35492,10.8757],[-85.34659,10.88123],[-85.34131,10.88233],[-85.34237,10.89185],[-85.34165,10.89351],[-85.33674,10.89577],[-85.33697,10.89718],[-85.33282,10.90099],[-85.33381,10.90206],[-85.33134,10.90663],[-85.33106,10.91118],[-85.32998,10.91075],[-85.32897,10.91276],[-85.32621,10.9131],[-85.32454,10.9166],[-85.32044,10.91639],[-85.31792,10.92053],[-85.31483,10.91818],[-85.3131,10.92051],[-85.31026,10.91748],[-85.30639,10.91961],[-85.30674,10.92333],[-85.3045,10.92306],[-85.30278,10.9211],[-85.30015,10.92338],[-85.30017,10.92922],[-85.29878,10.93202],[-85.29919,10.93573],[-85.30168,10.93854],[-85.30074,10.94193],[-85.305,10.94527],[-85.30722,10.94953],[-85.30466,10.95063],[-85.3053,10.95437],[-85.30717,10.95602],[-85.30303,10.95925],[-85.30182,10.96685],[-85.29953,10.9675],[-85.29834,10.9701],[-85.29325,10.97313],[-85.28783,10.97109],[-85.28449,10.97136],[-85.28319,10.97299],[-85.28647,10.97863],[-85.28267,10.9809],[-85.27782,10.98113],[-85.27558,10.98324],[-85.27214,10.98288],[-85.26953,10.97884]]]}},{"type":"Feature","properties":{"dta":"21306"},"geometry":{"type":"Polygon","coordinates":[[[-85.28978,11.02245],[-85.28961,11.0174],[-85.28653,11.01347],[-85.27716,11.00647],[-85.27121,11.00385],[-85.26649,10.9968],[-85.25956,10.99207],[-85.25949,10.98986],[-85.26264,10.98836],[-85.26425,10.98575],[-85.26303,10.97889],[-85.2646,10.97695],[-85.26651,10.97752],[-85.27008,10.97928],[-85.27214,10.98288],[-85.27558,10.98324],[-85.27782,10.98113],[-85.28267,10.9809],[-85.28647,10.97863],[-85.28319,10.97299],[-85.28449,10.97136],[-85.28783,10.97109],[-85.29325,10.97313],[-85.29834,10.9701],[-85.29953,10.9675],[-85.30182,10.96685],[-85.30303,10.95925],[-85.30717,10.95602],[-85.3053,10.95437],[-85.30466,10.95063],[-85.30722,10.94953],[-85.305,10.94527],[-85.30074,10.94193],[-85.30168,10.93854],[-85.29919,10.93573],[-85.29878,10.93202],[-85.30017,10.92922],[-85.30015,10.92338],[-85.30278,10.9211],[-85.3045,10.92306],[-85.30674,10.92333],[-85.30639,10.91961],[-85.31026,10.91748],[-85.3131,10.92051],[-85.31483,10.91818],[-85.31792,10.92053],[-85.32044,10.91639],[-85.32454,10.9166],[-85.32621,10.9131],[-85.32897,10.91276],[-85.32998,10.91075],[-85.33106,10.91118],[-85.33134,10.90663],[-85.33381,10.90206],[-85.33282,10.90099],[-85.33697,10.89718],[-85.33674,10.89577],[-85.34165,10.89351],[-85.34237,10.89185],[-85.34131,10.88233],[-85.34659,10.88123],[-85.35492,10.8757],[-85.35352,10.86771],[-85.35818,10.86219],[-85.3569,10.85804],[-85.3579,10.85602],[-85.35623,10.85153],[-85.35987,10.84686],[-85.3574,10.83307],[-85.3608,10.8264],[-85.36313,10.8259],[-85.37069,10.82979],[-85.3745,10.83491],[-85.3777,10.8353],[-85.39032,10.86001],[-85.39795,10.86793],[-85.40545,10.87179],[-85.4079,10.87869],[-85.41428,10.87953],[-85.41576,10.88362],[-85.41945,10.88696],[-85.42054,10.89057],[-85.42579,10.89426],[-85.42722,10.89797],[-85.43424,10.89808],[-85.43608,10.90774],[-85.44726,10.91726],[-85.44782,10.92255],[-85.44544,10.92758],[-85.44924,10.93427],[-85.44835,10.93748],[-85.43808,10.95109],[-85.43353,10.95263],[-85.42049,10.96441],[-85.41209,10.96181],[-85.40843,10.96325],[-85.4042,10.96189],[-85.39665,10.96636],[-85.39142,10.96511],[-85.38903,10.96813],[-85.38212,10.97111],[-85.38008,10.97324],[-85.38133,10.97453],[-85.37951,10.97722],[-85.3775,10.97765],[-85.38017,10.97971],[-85.37893,10.9812],[-85.38062,10.98428],[-85.37927,10.98858],[-85.37669,10.98956],[-85.37841,10.99357],[-85.37679,10.99483],[-85.37757,10.99571],[-85.37442,10.998],[-85.37013,10.99702],[-85.36639,10.99911],[-85.36873,11.00073],[-85.36749,11.00332],[-85.3689,11.00482],[-85.36611,11.00943],[-85.36493,11.00737],[-85.36378,11.01043],[-85.36209,11.0104],[-85.36243,11.01436],[-85.35714,11.01882],[-85.35656,11.0243],[-85.35459,11.02502],[-85.35624,11.02744],[-85.35573,11.0303],[-85.35364,11.03074],[-85.35397,11.0328],[-85.35168,11.03265],[-85.35085,11.0348],[-85.34843,11.03425],[-85.34687,11.03556],[-85.34061,11.03606],[-85.33908,11.03432],[-85.33583,11.03659],[-85.33338,11.0362],[-85.33119,11.04109],[-85.32859,11.03955],[-85.32554,11.0419],[-85.32305,11.04214],[-85.32164,11.04044],[-85.31179,11.04305],[-85.30929,11.04024],[-85.30587,11.03958],[-85.30695,11.03815],[-85.30418,11.03728],[-85.30502,11.03561],[-85.29838,11.03222],[-85.29761,11.03107],[-85.29966,11.03138],[-85.29666,11.02766],[-85.29151,11.02498],[-85.28978,11.02245]]]}},{"type":"Feature","properties":{"dta":"21307"},"geometry":{"type":"Polygon","coordinates":[[[-84.9912,10.97421],[-84.91067,10.94403],[-84.88159,10.96093],[-84.88058,10.95681],[-84.88121,10.94161],[-84.88499,10.93479],[-84.88494,10.93005],[-84.88688,10.9292],[-84.88773,10.91969],[-84.88642,10.91763],[-84.88653,10.91414],[-84.89128,10.90589],[-84.89095,10.90374],[-84.88712,10.90013],[-84.88866,10.8983],[-84.88821,10.89382],[-84.88556,10.89225],[-84.88499,10.89046],[-84.88817,10.88685],[-84.89332,10.8723],[-84.89003,10.87022],[-84.89019,10.86412],[-84.88631,10.86309],[-84.8842,10.85827],[-84.88586,10.85267],[-84.88474,10.84795],[-84.88666,10.84365],[-84.89038,10.84452],[-84.89281,10.84155],[-84.89062,10.83946],[-84.89117,10.83754],[-84.89797,10.82709],[-84.90195,10.82818],[-84.90712,10.83188],[-84.93501,10.85503],[-84.98045,10.85494],[-84.98537,10.85937],[-84.98643,10.86168],[-84.98495,10.86558],[-84.98643,10.86965],[-84.98582,10.87174],[-84.99143,10.88941],[-84.99014,10.89426],[-84.98861,10.89457],[-84.99655,10.91417],[-84.99367,10.92071],[-84.98908,10.92499],[-84.99058,10.92932],[-84.99666,10.93367],[-84.9957,10.93661],[-84.9967,10.94371],[-84.99395,10.94785],[-84.99355,10.95115],[-84.99768,10.96431],[-84.99391,10.96799],[-84.99254,10.9678],[-84.9912,10.97421]]]}},{"type":"Feature","properties":{"dta":"21303"},"geometry":{"type":"Polygon","coordinates":[[[-85.24049,11.06368],[-85.23526,11.06554],[-85.2332,11.06216],[-85.22911,11.06331],[-85.13227,11.02701],[-85.13241,11.0243],[-85.12736,11.02462],[-85.1296,11.02197],[-85.12654,11.01894],[-85.12423,11.01131],[-85.12147,11.00771],[-85.12164,11.00169],[-85.11921,10.9963],[-85.11978,10.99273],[-85.11295,10.98391],[-85.11475,10.98183],[-85.11521,10.97788],[-85.10325,10.96562],[-85.10242,10.95974],[-85.0967,10.95699],[-85.09276,10.94678],[-85.09189,10.94004],[-85.09338,10.93445],[-85.09218,10.9322],[-85.09433,10.92256],[-85.09321,10.922],[-85.09218,10.91602],[-85.08826,10.91317],[-85.08839,10.91031],[-85.08671,10.90726],[-85.0881,10.90326],[-85.08738,10.89991],[-85.09127,10.89184],[-85.09217,10.88624],[-85.09016,10.88225],[-85.09198,10.87742],[-85.0949,10.87463],[-85.09512,10.86876],[-85.11322,10.84669],[-85.11372,10.84245],[-85.1164,10.83912],[-85.11613,10.83189],[-85.11819,10.82848],[-85.12233,10.82958],[-85.12048,10.83189],[-85.12546,10.83447],[-85.12962,10.84139],[-85.14332,10.8541],[-85.14693,10.85634],[-85.15116,10.85627],[-85.15111,10.85941],[-85.15341,10.8603],[-85.15666,10.86492],[-85.1581,10.87347],[-85.16317,10.87957],[-85.16562,10.88523],[-85.17059,10.88648],[-85.17128,10.88897],[-85.17386,10.88975],[-85.17447,10.89379],[-85.17803,10.89787],[-85.17707,10.90155],[-85.17836,10.9043],[-85.18028,10.90297],[-85.18316,10.90712],[-85.18195,10.90964],[-85.18272,10.91292],[-85.18437,10.91267],[-85.18527,10.9107],[-85.18905,10.91187],[-85.19457,10.9101],[-85.20048,10.91236],[-85.20188,10.91485],[-85.20427,10.91588],[-85.20422,10.9183],[-85.20808,10.92096],[-85.21258,10.92681],[-85.21361,10.92706],[-85.21337,10.92322],[-85.21456,10.92279],[-85.21537,10.92771],[-85.21922,10.92658],[-85.22266,10.92909],[-85.21906,10.93],[-85.21936,10.93227],[-85.2216,10.93452],[-85.22849,10.93463],[-85.22851,10.9372],[-85.23231,10.94117],[-85.23322,10.9404],[-85.23155,10.9384],[-85.23403,10.93833],[-85.23742,10.94193],[-85.2407,10.94312],[-85.24339,10.94191],[-85.24698,10.94528],[-85.2446,10.94943],[-85.2477,10.95148],[-85.24357,10.95458],[-85.24498,10.95751],[-85.24404,10.96031],[-85.24779,10.96198],[-85.24641,10.96419],[-85.24692,10.96681],[-85.24948,10.96842],[-85.25211,10.96751],[-85.25048,10.97057],[-85.25167,10.97268],[-85.25831,10.97363],[-85.2646,10.97695],[-85.26279,10.97956],[-85.26391,10.98679],[-85.25949,10.98986],[-85.25956,10.99207],[-85.26649,10.9968],[-85.27121,11.00385],[-85.27809,11.00714],[-85.28653,11.01347],[-85.28961,11.0174],[-85.28978,11.02245],[-85.28809,11.02416],[-85.28624,11.02273],[-85.28492,11.02472],[-85.27872,11.01907],[-85.27887,11.01712],[-85.2762,11.01657],[-85.27724,11.01482],[-85.27318,11.01408],[-85.27198,11.01603],[-85.26849,11.01604],[-85.26876,11.01168],[-85.26715,11.01168],[-85.26663,11.01351],[-85.26547,11.01284],[-85.26503,11.01407],[-85.26286,11.01257],[-85.2582,11.02087],[-85.2589,11.03392],[-85.26132,11.03547],[-85.26085,11.03904],[-85.26225,11.03971],[-85.26327,11.04296],[-85.25872,11.04512],[-85.2567,11.04409],[-85.25431,11.04925],[-85.25166,11.04938],[-85.25047,11.05585],[-85.24919,11.05713],[-85.24926,11.06165],[-85.24805,11.06237],[-85.24502,11.06109],[-85.24322,11.06226],[-85.2428,11.06558],[-85.24049,11.06368]]]}},{"type":"Feature","properties":{"dta":"21305"},"geometry":{"type":"Polygon","coordinates":[[[-85.13227,11.02701],[-84.9912,10.97421],[-84.99254,10.9678],[-84.99389,10.968],[-84.99438,10.96642],[-84.99903,10.96393],[-85.00107,10.95942],[-85.00545,10.96013],[-85.00874,10.95927],[-85.0119,10.95664],[-85.01558,10.95632],[-85.01951,10.94709],[-85.0216,10.94502],[-85.02042,10.93957],[-85.02166,10.93397],[-85.02741,10.93413],[-85.02713,10.93077],[-85.03052,10.9265],[-85.03872,10.92669],[-85.04,10.92415],[-85.03905,10.92114],[-85.04105,10.91998],[-85.0407,10.91779],[-85.04434,10.91518],[-85.04457,10.91225],[-85.04272,10.90909],[-85.04534,10.90498],[-85.04314,10.89901],[-85.05319,10.90688],[-85.05633,10.90531],[-85.06399,10.90753],[-85.07028,10.9064],[-85.07778,10.90841],[-85.0877,10.90887],[-85.08826,10.91317],[-85.09218,10.91602],[-85.09321,10.922],[-85.09433,10.92256],[-85.09218,10.9322],[-85.09338,10.93445],[-85.09189,10.94004],[-85.09276,10.94678],[-85.0967,10.95699],[-85.10242,10.95974],[-85.10325,10.96562],[-85.11521,10.97788],[-85.11475,10.98183],[-85.11295,10.98391],[-85.11978,10.99273],[-85.11921,10.9963],[-85.12164,11.00169],[-85.12147,11.00771],[-85.12423,11.01131],[-85.12654,11.01894],[-85.1296,11.02197],[-85.12718,11.02425],[-85.13241,11.0243],[-85.13227,11.02701]]]}}]}